NORAD_CAT_ID,OBJECT_NAME,OBJECT_TYPE,EPOCH,MEAN_MOTION,ECCENTRICITY,INCLINATION,RA_OF_ASC_NODE,ARG_OF_PERICENTER,MEAN_ANOMALY,BSTAR,MEAN_MOTION_DOT,MEAN_MOTION_DDOT,TLE_LINE0,TLE_LINE1,TLE_LINE2,SEMIMAJOR_AXIS,PERIOD,APOGEE,PERIGEE,DECAYED
49137.0,STARLINK-3055,PAYLOAD,2024-03-02 22:00:57,14.9827885,0.0003093,70.0011,332.1219,256.6507,103.4307,0.00093005,0.00011007,0.0,0 STARLINK-3055,1 49137U 21082H   24062.91732851  .00011007  00000-0  93005-3 0  9996,2 49137  70.0011 332.1219 0003093 256.6507 103.4307 14.98278850136114,6950.351,96.11,574.366,570.066,0.0
49137.0,STARLINK-3055,PAYLOAD,2024-03-03 02:49:20,14.98332216,0.0002648,70.0011,331.6172,253.6664,106.4204,-3.1362e-06,-1.3e-06,0.0,0 STARLINK-3055,1 49137U 21082H   24063.11759630 -.00000130  00000-0 -31362-5 0  9990,2 49137  70.0011 331.6172 0002648 253.6664 106.4204 14.98332216136141,6950.186,96.107,573.891,570.211,0.0
49137.0,STARLINK-3055,PAYLOAD,2024-03-03 10:50:01,14.98311126,0.0002547,70.0012,330.7748,261.4922,98.5948,0.00030492,3.545e-05,0.0,0 STARLINK-3055,1 49137U 21082H   24063.45140408  .00003545  00000-0  30492-3 0  9996,2 49137  70.0012 330.7748 0002547 261.4922  98.5948 14.98311126136191,6950.251,96.108,573.886,570.346,0.0
49137.0,STARLINK-3055,PAYLOAD,2024-03-03 20:26:49,14.98331218,0.0002777,70.0012,329.7655,271.6509,88.4332,1.0157e-06,-8.1e-07,0.0,0 STARLINK-3055,1 49137U 21082H   24063.85195648 -.00000081  00000-0  10157-5 0  9997,2 49137  70.0012 329.7655 0002777 271.6509  88.4332 14.98331218136251,6950.189,96.107,573.984,570.124,0.0
49137.0,STARLINK-3055,PAYLOAD,2024-03-04 04:27:28,14.9833552,0.0002458,70.001,328.9231,251.9483,108.1409,2.4193e-05,1.96e-06,0.0,0 STARLINK-3055,1 49137U 21082H   24064.18575160  .00000196  00000-0  24193-4 0  9995,2 49137  70.0010 328.9231 0002458 251.9483 108.1409 14.98335520136309,6950.176,96.107,573.749,570.332,0.0
49137.0,STARLINK-3055,PAYLOAD,2024-03-04 10:52:01,14.98331607,0.0002482,70.0006,328.2471,270.1808,89.9067,0.00011612,1.293e-05,0.0,0 STARLINK-3055,1 49137U 21082H   24064.45279161  .00001293  00000-0  11612-3 0  9997,2 49137  70.0006 328.2471 0002482 270.1808  89.9067 14.98331607136346,6950.188,96.107,573.778,570.328,0.0
49137.0,STARLINK-3055,PAYLOAD,2024-03-04 22:04:57,14.98319392,0.000272,70.0,327.0694,265.3034,94.7814,0.00015297,1.732e-05,0.0,0 STARLINK-3055,1 49137U 21082H   24064.92011564  .00001732  00000-0  15297-3 0  9991,2 49137  70.0000 327.0694 0002720 265.3034  94.7814 14.98319392136415,6950.226,96.108,573.981,570.2,0.0
49137.0,STARLINK-3055,PAYLOAD,2024-03-05 02:53:21,14.9833087,0.0002633,70.0005,326.5648,270.1189,89.9668,2.1354e-05,1.62e-06,0.0,0 STARLINK-3055,1 49137U 21082H   24065.12039279  .00000162  00000-0  21354-4 0  9995,2 49137  70.0005 326.5648 0002633 270.1189  89.9668 14.98330870136441,6950.19,96.107,573.885,570.225,0.0
49137.0,STARLINK-3055,PAYLOAD,2024-03-05 20:30:51,14.9832431,0.0002684,70.0003,324.7131,270.0415,90.0437,-8.6805e-06,-1.96e-06,0.0,0 STARLINK-3055,1 49137U 21082H   24065.85475846 -.00000196  00000-0 -86805-5 0  9991,2 49137  70.0003 324.7131 0002684 270.0415  90.0437 14.98324310136554,6950.21,96.107,573.941,570.21,0.0
49137.0,STARLINK-3055,PAYLOAD,2024-03-06 02:55:23,14.98326821,0.0002582,70.0005,324.0399,260.393,99.6938,-4.3078e-05,-6.07e-06,0.0,0 STARLINK-3055,1 49137U 21082H   24066.12179811 -.00000607  00000-0 -43078-4 0  9996,2 49137  70.0005 324.0399 0002582 260.3930  99.6938 14.98326821136590,6950.203,96.107,573.862,570.273,0.0
49137.0,STARLINK-3055,PAYLOAD,2024-03-07 02:57:24,14.98312941,0.0002612,70.0003,321.5151,261.5813,98.505,0.00025264,2.921e-05,0.0,0 STARLINK-3055,1 49137U 21082H   24067.12320108  .00002921  00000-0  25264-3 0  9999,2 49137  70.0003 321.5151 0002612 261.5813  98.5050 14.98312941136741,6950.246,96.108,573.926,570.295,0.0
49137.0,STARLINK-3055,PAYLOAD,2024-03-08 02:59:24,14.98331122,0.0002792,69.9998,318.9918,261.2172,98.867,9.4247e-05,1.032e-05,0.0,0 STARLINK-3055,1 49137U 21082H   24068.12459395  .00001032  00000-0  94247-4 0  9991,2 49137  69.9998 318.9918 0002792 261.2172  98.8670 14.98331122136895,6950.189,96.107,573.995,570.114,0.0
49137.0,STARLINK-3055,PAYLOAD,2024-03-08 09:23:57,14.98330639,0.0002694,70.0,318.3177,271.4476,88.6374,5.4124e-05,5.53e-06,0.0,0 STARLINK-3055,1 49137U 21082H   24068.39163623  .00000553  00000-0  54124-4 0  9993,2 49137  70.0000 318.3177 0002694 271.4476  88.6374 14.98330639136939,6950.191,96.107,573.928,570.184,0.0
49137.0,STARLINK-3055,PAYLOAD,2024-03-09 03:01:26,14.98328676,0.0002652,69.9998,316.4667,269.0749,91.0106,4.9531e-05,4.98e-06,0.0,0 STARLINK-3055,1 49137U 21082H   24069.12599778  .00000498  00000-0  49531-4 0  9993,2 49137  69.9998 316.4667 0002652 269.0749  91.0106 14.98328676137047,6950.197,96.107,573.905,570.219,0.0
49137.0,STARLINK-3055,PAYLOAD,2024-03-09 09:25:58,14.98331488,0.0002588,70.0,315.7928,270.5326,89.5536,2.606e-05,2.18e-06,0.0,0 STARLINK-3055,1 49137U 21082H   24069.39303688  .00000218  00000-0  26060-4 0  9997,2 49137  70.0000 315.7928 0002588 270.5326  89.5536 14.98331488137080,6950.188,96.107,573.852,570.255,0.0
49137.0,STARLINK-3055,PAYLOAD,2024-03-10 01:27:18,14.98336797,0.0002565,69.9999,314.1093,270.8559,89.2306,5.9655e-05,6.19e-06,0.0,0 STARLINK-3055,1 49137U 21082H   24070.06063054  .00000619  00000-0  59655-4 0  9994,2 49137  69.9999 314.1093 0002565 270.8559  89.2306 14.98336797137187,6950.172,96.107,573.82,570.254,0.0
49137.0,STARLINK-3055,PAYLOAD,2024-03-10 20:40:55,14.98326797,0.0002845,69.9997,312.0884,272.4538,87.6296,-5.6518e-06,-1.6e-06,0.0,0 STARLINK-3055,1 49137U 21082H   24070.86175650 -.00000160  00000-0 -56518-5 0  9997,2 49137  69.9997 312.0884 0002845 272.4538  87.6296 14.98326797137309,6950.203,96.107,574.045,570.09,0.0
49137.0,STARLINK-3055,PAYLOAD,2024-03-10 22:17:03,14.98328887,0.0003026,69.9991,311.9202,268.5967,91.4845,-3.8827e-05,-5.56e-06,0.0,0 STARLINK-3055,1 49137U 21082H   24070.92851572 -.00000556  00000-0 -38827-4 0  9999,2 49137  69.9991 311.9202 0003026 268.5967  91.4845 14.98328887137315,6950.196,96.107,574.164,569.958,0.0
49137.0,STARLINK-3055,PAYLOAD,2024-03-11 09:30:00,14.98328824,0.0002894,69.9993,310.7419,268.684,91.3987,-3.0346e-05,-4.55e-06,0.0,0 STARLINK-3055,1 49137U 21082H   24071.39583569 -.00000455  00000-0 -30346-4 0  9995,2 49137  69.9993 310.7419 0002894 268.6840  91.3987 14.98328824137381,6950.197,96.107,574.073,570.05,0.0
49137.0,STARLINK-3055,PAYLOAD,2024-03-12 01:31:20,14.98329919,0.0002895,69.9991,309.0582,267.8561,92.2267,3.1521e-05,2.83e-06,0.0,0 STARLINK-3055,1 49137U 21082H   24072.06343242  .00000283  00000-0  31521-4 0  9995,2 49137  69.9991 309.0582 0002895 267.8561  92.2267 14.98329919137481,6950.193,96.107,574.07,570.046,0.0
49137.0,STARLINK-3055,PAYLOAD,2024-03-12 22:21:05,14.98331307,0.0002923,69.9988,306.8705,269.5658,90.5166,6.4825e-05,6.81e-06,0.0,0 STARLINK-3055,1 49137U 21082H   24072.93131062  .00000681  00000-0  64825-4 0  9991,2 49137  69.9988 306.8705 0002923 269.5658  90.5166 14.98331307137615,6950.189,96.107,574.085,570.022,0.0
49137.0,STARLINK-3055,PAYLOAD,2024-03-13 01:33:21,14.98331013,0.0002943,69.9988,306.5339,269.8498,90.2324,5.9262e-05,6.14e-06,0.0,0 STARLINK-3055,1 49137U 21082H   24073.06483092  .00000614  00000-0  59262-4 0  9994,2 49137  69.9988 306.5339 0002943 269.8498  90.2324 14.98331013137631,6950.19,96.107,574.1,570.009,0.0
49137.0,STARLINK-3055,PAYLOAD,2024-03-13 22:23:06,14.98332475,0.0002944,69.9991,304.3456,271.0023,89.0799,1.3279e-05,6.5e-07,0.0,0 STARLINK-3055,1 49137U 21082H   24073.93271063  .00000065  00000-0  13279-4 0  9991,2 49137  69.9991 304.3456 0002944 271.0023  89.0799 14.98332475137760,6950.185,96.107,574.096,570.004,0.0
49137.0,STARLINK-3055,PAYLOAD,2024-03-14 01:35:22,14.98334232,0.0002913,69.9993,304.0089,271.2578,88.8247,3.3763e-05,3.1e-06,0.0,0 STARLINK-3055,1 49137U 21082H   24074.06622881  .00000310  00000-0  33763-4 0  9997,2 49137  69.9993 304.0089 0002913 271.2578  88.8247 14.98334232137784,6950.18,96.107,574.069,570.02,0.0
49137.0,STARLINK-3055,PAYLOAD,2024-03-14 22:25:07,14.98331264,0.0002883,69.9992,301.8201,273.256,86.8269,7.0697e-06,-9e-08,0.0,0 STARLINK-3055,1 49137U 21082H   24074.93411011 -.00000009  00000-0  70697-5 0  9998,2 49137  69.9992 301.8201 0002883 273.2560  86.8269 14.98331264137912,6950.189,96.107,574.058,570.05,0.0
49137.0,STARLINK-3055,PAYLOAD,2024-03-15 01:37:23,14.9833153,0.000288,69.9992,301.483,274.371,85.712,1.4069e-05,7.5e-07,0.0,0 STARLINK-3055,1 49137U 21082H   24075.06762968  .00000075  00000-0  14069-4 0  9995,2 49137  69.9992 301.4830 0002880 274.3710  85.7120 14.98331530137934,6950.188,96.107,574.055,570.052,0.0
49137.0,STARLINK-3055,PAYLOAD,2024-03-15 22:27:08,14.98331391,0.0002484,69.9998,299.2938,281.9626,78.1254,-3.7266e-06,-1.37e-06,0.0,0 STARLINK-3055,1 49137U 21082H   24075.93551131 -.00000137  00000-0 -37266-5 0  9995,2 49137  69.9998 299.2938 0002484 281.9626  78.1254 14.98331391138067,6950.189,96.107,573.78,570.327,0.0
49137.0,STARLINK-3055,PAYLOAD,2024-03-16 14:28:28,14.98326887,0.0002814,69.9985,297.6116,266.6066,93.4772,-1.7098e-05,-2.97e-06,0.0,0 STARLINK-3055,1 49137U 21082H   24076.60311217 -.00000297  00000-0 -17098-4 0  9996,2 49137  69.9985 297.6116 0002814 266.6066  93.4772 14.98326887138168,6950.203,96.107,574.023,570.112,0.0
49137.0,STARLINK-3055,PAYLOAD,2024-03-16 20:53:01,14.98326764,0.0002842,69.9983,296.9378,264.9792,95.1042,-3.7817e-05,-5.44e-06,0.0,0 STARLINK-3055,1 49137U 21082H   24076.87015323 -.00000544  00000-0 -37817-4 0  9990,2 49137  69.9983 296.9378 0002842 264.9792  95.1042 14.98326764138204,6950.203,96.107,574.043,570.093,0.0
49137.0,STARLINK-3055,PAYLOAD,2024-03-16 22:29:09,14.98326347,0.0002876,69.9983,296.7695,265.7219,94.3611,-4.3523e-05,-6.12e-06,0.0,0 STARLINK-3055,1 49137U 21082H   24076.93691379 -.00000612  00000-0 -43523-4 0  9995,2 49137  69.9983 296.7695 0002876 265.7219  94.3611 14.98326347138215,6950.204,96.107,574.068,570.07,0.0
